{"fetched_at":"2026-07-10T18:07:55.353Z","source":"https://celestrak.org/NORAD/elements/gp.php?GROUP=spire&FORMAT=JSON","constellation":"spire","records":[{"OBJECT_NAME":"LEMUR-2-MYRA","OBJECT_ID":"2025-276EC","EPOCH":"2026-07-09T14:26:30.858720","CLASSIFICATION_TYPE":"U","MEAN_MOTION":15.00547888,"ECCENTRICITY":0.00185744,"INCLINATION":97.5217,"RA_OF_ASC_NODE":260.7505,"ARG_OF_PERICENTER":71.159,"MEAN_ANOMALY":289.1646,"EPHEMERIS_TYPE":0,"NORAD_CAT_ID":66787,"ELEMENT_SET_NO":999,"REV_AT_EPOCH":3357,"BSTAR":0.00033740262,"MEAN_MOTION_DOT":0.00004214,"MEAN_MOTION_DDOT":0},{"OBJECT_NAME":"LEMUR-2 FIKRETDENGIZ","OBJECT_ID":"2026-004A","EPOCH":"2026-07-09T17:20:41.873568","CLASSIFICATION_TYPE":"U","MEAN_MOTION":14.88491309,"ECCENTRICITY":0.0010439,"INCLINATION":97.8024,"RA_OF_ASC_NODE":188.9369,"ARG_OF_PERICENTER":71.1066,"MEAN_ANOMALY":289.1282,"EPHEMERIS_TYPE":0,"NORAD_CAT_ID":67363,"ELEMENT_SET_NO":999,"REV_AT_EPOCH":2663,"BSTAR":0.00026760836,"MEAN_MOTION_DOT":0.00002433,"MEAN_MOTION_DDOT":0},{"OBJECT_NAME":"TWILIGHT-1 OBJECT B","OBJECT_ID":"2026-004B","EPOCH":"2026-07-10T05:28:19.732224","CLASSIFICATION_TYPE":"U","MEAN_MOTION":14.87783017,"ECCENTRICITY":0.0010013,"INCLINATION":97.8071,"RA_OF_ASC_NODE":189.4384,"ARG_OF_PERICENTER":60.0405,"MEAN_ANOMALY":300.1805,"EPHEMERIS_TYPE":0,"NORAD_CAT_ID":67364,"ELEMENT_SET_NO":999,"REV_AT_EPOCH":2671,"BSTAR":0.00013800507,"MEAN_MOTION_DOT":0.00001206,"MEAN_MOTION_DDOT":0},{"OBJECT_NAME":"LEMUR-2-MARIO-SOUSA","OBJECT_ID":"2026-004C","EPOCH":"2026-07-10T07:23:53.676096","CLASSIFICATION_TYPE":"U","MEAN_MOTION":14.8870321,"ECCENTRICITY":0.0010049,"INCLINATION":97.7996,"RA_OF_ASC_NODE":189.5087,"ARG_OF_PERICENTER":70.706,"MEAN_ANOMALY":289.5243,"EPHEMERIS_TYPE":0,"NORAD_CAT_ID":67365,"ELEMENT_SET_NO":999,"REV_AT_EPOCH":2673,"BSTAR":0.00026917649,"MEAN_MOTION_DOT":0.00002461,"MEAN_MOTION_DDOT":0},{"OBJECT_NAME":"LEMUR-2-SONNENBLUME","OBJECT_ID":"2026-004E","EPOCH":"2026-07-10T05:49:55.562016","CLASSIFICATION_TYPE":"U","MEAN_MOTION":14.88438367,"ECCENTRICITY":0.00096078,"INCLINATION":97.7993,"RA_OF_ASC_NODE":189.4195,"ARG_OF_PERICENTER":72.2436,"MEAN_ANOMALY":287.9829,"EPHEMERIS_TYPE":0,"NORAD_CAT_ID":67367,"ELEMENT_SET_NO":999,"REV_AT_EPOCH":2672,"BSTAR":0.00016608899,"MEAN_MOTION_DOT":0.00001487,"MEAN_MOTION_DDOT":0},{"OBJECT_NAME":"LEMUR-2-WOBLER","OBJECT_ID":"2026-004F","EPOCH":"2026-07-10T05:35:39.535872","CLASSIFICATION_TYPE":"U","MEAN_MOTION":14.88677606,"ECCENTRICITY":0.00097782,"INCLINATION":97.8048,"RA_OF_ASC_NODE":189.5553,"ARG_OF_PERICENTER":63.8201,"MEAN_ANOMALY":296.402,"EPHEMERIS_TYPE":0,"NORAD_CAT_ID":67368,"ELEMENT_SET_NO":999,"REV_AT_EPOCH":2672,"BSTAR":0.00023594239,"MEAN_MOTION_DOT":0.00002149,"MEAN_MOTION_DDOT":0},{"OBJECT_NAME":"LEMUR-2-GRAM-E-SUE","OBJECT_ID":"2026-004H","EPOCH":"2026-07-09T10:02:16.225440","CLASSIFICATION_TYPE":"U","MEAN_MOTION":14.88573884,"ECCENTRICITY":0.00088105,"INCLINATION":97.7979,"RA_OF_ASC_NODE":188.6239,"ARG_OF_PERICENTER":76.6994,"MEAN_ANOMALY":283.5205,"EPHEMERIS_TYPE":0,"NORAD_CAT_ID":67370,"ELEMENT_SET_NO":999,"REV_AT_EPOCH":2660,"BSTAR":0.00020247652,"MEAN_MOTION_DOT":0.00001831,"MEAN_MOTION_DDOT":0},{"OBJECT_NAME":"LEMUR-2-KATIE","OBJECT_ID":"2026-004AA","EPOCH":"2026-07-09T17:12:57.933216","CLASSIFICATION_TYPE":"U","MEAN_MOTION":14.90219671,"ECCENTRICITY":0.00038887,"INCLINATION":97.8041,"RA_OF_ASC_NODE":189.4514,"ARG_OF_PERICENTER":45.7601,"MEAN_ANOMALY":314.3936,"EPHEMERIS_TYPE":0,"NORAD_CAT_ID":67387,"ELEMENT_SET_NO":999,"REV_AT_EPOCH":2666,"BSTAR":0.000302579,"MEAN_MOTION_DOT":0.00002879,"MEAN_MOTION_DDOT":0},{"OBJECT_NAME":"LEMUR-2-HCS-BAZUS","OBJECT_ID":"2026-004AB","EPOCH":"2026-07-09T17:10:41.165472","CLASSIFICATION_TYPE":"U","MEAN_MOTION":14.90243096,"ECCENTRICITY":0.00033738,"INCLINATION":97.8032,"RA_OF_ASC_NODE":189.4291,"ARG_OF_PERICENTER":46.2274,"MEAN_ANOMALY":313.9222,"EPHEMERIS_TYPE":0,"NORAD_CAT_ID":67388,"ELEMENT_SET_NO":999,"REV_AT_EPOCH":2666,"BSTAR":0.00015072027,"MEAN_MOTION_DOT":0.00001407,"MEAN_MOTION_DDOT":0}]}
